{
 "type": "FeatureCollection",
 "features": [
  {
   "type": "Feature",
   "geometry": {
    "type": "Point",
    "coordinates": [
     78.363026,
     17.438243
    ]
   },
   "properties": {
    "id": "women-0",
    "name": "Women police station",
    "type": "women"
   }
  },
  {
   "type": "Feature",
   "geometry": {
    "type": "Point",
    "coordinates": [
     78.476139,
     17.38898
    ]
   },
   "properties": {
    "id": "police-0",
    "name": "abids police station",
    "type": "police"
   }
  },
  {
   "type": "Feature",
   "geometry": {
    "type": "Point",
    "coordinates": [
     78.49173,
     17.377938
    ]
   },
   "properties": {
    "id": "police-1",
    "name": "Chaderghat Police Station",
    "type": "police"
   }
  },
  {
   "type": "Feature",
   "geometry": {
    "type": "Point",
    "coordinates": [
     78.479458,
     17.367155
    ]
   },
   "properties": {
    "id": "police-2",
    "name": "Deputy Commissioner of Police Office (South Zone)",
    "type": "police"
   }
  },
  {
   "type": "Feature",
   "geometry": {
    "type": "Point",
    "coordinates": [
     78.48521,
     17.394662
    ]
   },
   "properties": {
    "id": "police-3",
    "name": "ABIDS Police Station",
    "type": "police"
   }
  },
  {
   "type": "Feature",
   "geometry": {
    "type": "Point",
    "coordinates": [
     78.480489,
     17.363619
    ]
   },
   "properties": {
    "id": "police-4",
    "name": "میر چوک تھانہ",
    "type": "police"
   }
  },
  {
   "type": "Feature",
   "geometry": {
    "type": "Point",
    "coordinates": [
     78.460742,
     17.378408
    ]
   },
   "properties": {
    "id": "police-5",
    "name": "Mangalhat Police station",
    "type": "police"
   }
  },
  {
   "type": "Feature",
   "geometry": {
    "type": "Point",
    "coordinates": [
     78.488192,
     17.361747
    ]
   },
   "properties": {
    "id": "police-6",
    "name": "ریان بازار تھانہ",
    "type": "police"
   }
  },
  {
   "type": "Feature",
   "geometry": {
    "type": "Point",
    "coordinates": [
     78.489819,
     17.397857
    ]
   },
   "properties": {
    "id": "police-7",
    "name": "Narayanaguda police station",
    "type": "police"
   }
  },
  {
   "type": "Feature",
   "geometry": {
    "type": "Point",
    "coordinates": [
     78.460378,
     17.400089
    ]
   },
   "properties": {
    "id": "police-8",
    "name": "Nampally Police Station",
    "type": "police"
   }
  },
  {
   "type": "Feature",
   "geometry": {
    "type": "Point",
    "coordinates": [
     78.462832,
     17.402653
    ]
   },
   "properties": {
    "id": "police-9",
    "name": "Saifabad Police Station",
    "type": "police"
   }
  },
  {
   "type": "Feature",
   "geometry": {
    "type": "Point",
    "coordinates": [
     78.501053,
     17.358641
    ]
   },
   "properties": {
    "id": "police-10",
    "name": "Madannapet police station",
    "type": "police"
   }
  },
  {
   "type": "Feature",
   "geometry": {
    "type": "Point",
    "coordinates": [
     78.448434,
     17.374818
    ]
   },
   "properties": {
    "id": "police-11",
    "name": "Tappachabutra Police Station",
    "type": "police"
   }
  },
  {
   "type": "Feature",
   "geometry": {
    "type": "Point",
    "coordinates": [
     78.460165,
     17.355979
    ]
   },
   "properties": {
    "id": "police-12",
    "name": "کامتی پورہ تھانہ",
    "type": "police"
   }
  },
  {
   "type": "Feature",
   "geometry": {
    "type": "Point",
    "coordinates": [
     78.512004,
     17.370486
    ]
   },
   "properties": {
    "id": "police-13",
    "name": "Malakpet Police Station",
    "type": "police"
   }
  },
  {
   "type": "Feature",
   "geometry": {
    "type": "Point",
    "coordinates": [
     78.509166,
     17.36207
    ]
   },
   "properties": {
    "id": "police-14",
    "name": "سعیدآباد تھانہ",
    "type": "police"
   }
  },
  {
   "type": "Feature",
   "geometry": {
    "type": "Point",
    "coordinates": [
     78.464608,
     17.411087
    ]
   },
   "properties": {
    "id": "police-15",
    "name": "Saifabad Police Station",
    "type": "police"
   }
  },
  {
   "type": "Feature",
   "geometry": {
    "type": "Point",
    "coordinates": [
     78.516959,
     17.386332
    ]
   },
   "properties": {
    "id": "police-16",
    "name": "Dcp Office East Zone Amberpet",
    "type": "police"
   }
  },
  {
   "type": "Feature",
   "geometry": {
    "type": "Point",
    "coordinates": [
     78.516741,
     17.38991
    ]
   },
   "properties": {
    "id": "police-17",
    "name": "Amberpet Police Station",
    "type": "police"
   }
  },
  {
   "type": "Feature",
   "geometry": {
    "type": "Point",
    "coordinates": [
     78.517429,
     17.387195
    ]
   },
   "properties": {
    "id": "police-18",
    "name": "Police training center",
    "type": "police"
   }
  },
  {
   "type": "Feature",
   "geometry": {
    "type": "Point",
    "coordinates": [
     78.518244,
     17.389303
    ]
   },
   "properties": {
    "id": "police-19",
    "name": "Amberpet Police Station",
    "type": "police"
   }
  },
  {
   "type": "Feature",
   "geometry": {
    "type": "Point",
    "coordinates": [
     78.442229,
     17.39555
    ]
   },
   "properties": {
    "id": "police-20",
    "name": "Humayun Nagar Police Station",
    "type": "police"
   }
  },
  {
   "type": "Feature",
   "geometry": {
    "type": "Point",
    "coordinates": [
     78.513311,
     17.407697
    ]
   },
   "properties": {
    "id": "police-21",
    "name": "Nallakunta Police Station",
    "type": "police"
   }
  },
  {
   "type": "Feature",
   "geometry": {
    "type": "Point",
    "coordinates": [
     78.500299,
     17.419353
    ]
   },
   "properties": {
    "id": "police-22",
    "name": "Musheerabad- Police Station",
    "type": "police"
   }
  },
  {
   "type": "Feature",
   "geometry": {
    "type": "Point",
    "coordinates": [
     78.52766,
     17.368319
    ]
   },
   "properties": {
    "id": "police-23",
    "name": "Saroornagar Police Station",
    "type": "police"
   }
  },
  {
   "type": "Feature",
   "geometry": {
    "type": "Point",
    "coordinates": [
     78.52769,
     17.368156
    ]
   },
   "properties": {
    "id": "police-24",
    "name": "Police Station",
    "type": "police"
   }
  },
  {
   "type": "Feature",
   "geometry": {
    "type": "Point",
    "coordinates": [
     78.452375,
     17.426243
    ]
   },
   "properties": {
    "id": "police-25",
    "name": "Punjagutta Police Station",
    "type": "police"
   }
  },
  {
   "type": "Feature",
   "geometry": {
    "type": "Point",
    "coordinates": [
     78.508301,
     17.333689
    ]
   },
   "properties": {
    "id": "police-26",
    "name": "Kanchanbagh Police Station",
    "type": "police"
   }
  },
  {
   "type": "Feature",
   "geometry": {
    "type": "Point",
    "coordinates": [
     78.488475,
     17.436164
    ]
   },
   "properties": {
    "id": "police-27",
    "name": "Ramgopalpet Police Station",
    "type": "police"
   }
  },
  {
   "type": "Feature",
   "geometry": {
    "type": "Point",
    "coordinates": [
     78.48835,
     17.43621
    ]
   },
   "properties": {
    "id": "police-28",
    "name": "Ramgopalpet old police station",
    "type": "police"
   }
  },
  {
   "type": "Feature",
   "geometry": {
    "type": "Point",
    "coordinates": [
     78.49096,
     17.436026
    ]
   },
   "properties": {
    "id": "police-29",
    "name": "Mahankali Police Station",
    "type": "police"
   }
  },
  {
   "type": "Feature",
   "geometry": {
    "type": "Point",
    "coordinates": [
     78.513215,
     17.430311
    ]
   },
   "properties": {
    "id": "police-30",
    "name": "Chilkalguda Police Station",
    "type": "police"
   }
  },
  {
   "type": "Feature",
   "geometry": {
    "type": "Point",
    "coordinates": [
     78.435741,
     17.422399
    ]
   },
   "properties": {
    "id": "police-31",
    "name": "Banjara Hills Police Station",
    "type": "police"
   }
  },
  {
   "type": "Feature",
   "geometry": {
    "type": "Point",
    "coordinates": [
     78.525957,
     17.421527
    ]
   },
   "properties": {
    "id": "police-32",
    "name": "Osmania University Police Station",
    "type": "police"
   }
  },
  {
   "type": "Feature",
   "geometry": {
    "type": "Point",
    "coordinates": [
     78.479125,
     17.440561
    ]
   },
   "properties": {
    "id": "police-33",
    "name": "Ramgopalpet Police Station",
    "type": "police"
   }
  },
  {
   "type": "Feature",
   "geometry": {
    "type": "Point",
    "coordinates": [
     78.474784,
     17.443961
    ]
   },
   "properties": {
    "id": "police-34",
    "name": "Begumpet Police Station",
    "type": "police"
   }
  },
  {
   "type": "Feature",
   "geometry": {
    "type": "Point",
    "coordinates": [
     78.445601,
     17.440071
    ]
   },
   "properties": {
    "id": "police-35",
    "name": "Sanjeev Reddy Nagar Police Station",
    "type": "police"
   }
  },
  {
   "type": "Feature",
   "geometry": {
    "type": "Point",
    "coordinates": [
     78.447843,
     17.441429
    ]
   },
   "properties": {
    "id": "police-36",
    "name": "SR Nagar Police Station",
    "type": "police"
   }
  },
  {
   "type": "Feature",
   "geometry": {
    "type": "Point",
    "coordinates": [
     78.517481,
     17.445106
    ]
   },
   "properties": {
    "id": "police-37",
    "name": "Tukaram Gate Police Station",
    "type": "police"
   }
  },
  {
   "type": "Feature",
   "geometry": {
    "type": "Point",
    "coordinates": [
     78.551573,
     17.346778
    ]
   },
   "properties": {
    "id": "police-38",
    "name": "LB Nagar Police Station",
    "type": "police"
   }
  },
  {
   "type": "Feature",
   "geometry": {
    "type": "Point",
    "coordinates": [
     78.560227,
     17.402203
    ]
   },
   "properties": {
    "id": "police-39",
    "name": "Uppal Police Station",
    "type": "police"
   }
  },
  {
   "type": "Feature",
   "geometry": {
    "type": "Point",
    "coordinates": [
     78.500045,
     17.458988
    ]
   },
   "properties": {
    "id": "police-40",
    "name": "Karkhana Police Station",
    "type": "police"
   }
  },
  {
   "type": "Feature",
   "geometry": {
    "type": "Point",
    "coordinates": [
     78.472566,
     17.464851
    ]
   },
   "properties": {
    "id": "police-41",
    "name": "Bowenpally Police Station",
    "type": "police"
   }
  },
  {
   "type": "Feature",
   "geometry": {
    "type": "Point",
    "coordinates": [
     78.537414,
     17.44987
    ]
   },
   "properties": {
    "id": "police-42",
    "name": "Malkajgiri Police Station",
    "type": "police"
   }
  },
  {
   "type": "Feature",
   "geometry": {
    "type": "Point",
    "coordinates": [
     78.41403,
     17.453333
    ]
   },
   "properties": {
    "id": "police-43",
    "name": "Old Police Station",
    "type": "police"
   }
  },
  {
   "type": "Feature",
   "geometry": {
    "type": "Point",
    "coordinates": [
     78.56901,
     17.332011
    ]
   },
   "properties": {
    "id": "police-44",
    "name": "vanasthalipuram police station",
    "type": "police"
   }
  },
  {
   "type": "Feature",
   "geometry": {
    "type": "Point",
    "coordinates": [
     78.39589,
     17.439398
    ]
   },
   "properties": {
    "id": "police-45",
    "name": "Madhapur Police Station",
    "type": "police"
   }
  },
  {
   "type": "Feature",
   "geometry": {
    "type": "Point",
    "coordinates": [
     78.396074,
     17.439873
    ]
   },
   "properties": {
    "id": "police-46",
    "name": "Madhapur Police Station",
    "type": "police"
   }
  },
  {
   "type": "Feature",
   "geometry": {
    "type": "Point",
    "coordinates": [
     78.380577,
     17.423342
    ]
   },
   "properties": {
    "id": "police-47",
    "name": "Raidurgam, Cyberabad",
    "type": "police"
   }
  },
  {
   "type": "Feature",
   "geometry": {
    "type": "Point",
    "coordinates": [
     78.474138,
     17.264146
    ]
   },
   "properties": {
    "id": "police-48",
    "name": "Pahadishareef Police Station",
    "type": "police"
   }
  },
  {
   "type": "Feature",
   "geometry": {
    "type": "Point",
    "coordinates": [
     78.601109,
     17.407588
    ]
   },
   "properties": {
    "id": "police-49",
    "name": "Medipally Police Station",
    "type": "police"
   }
  },
  {
   "type": "Feature",
   "geometry": {
    "type": "Point",
    "coordinates": [
     78.60113,
     17.40765
    ]
   },
   "properties": {
    "id": "police-50",
    "name": "Medipally Police Station",
    "type": "police"
   }
  },
  {
   "type": "Feature",
   "geometry": {
    "type": "Point",
    "coordinates": [
     78.415172,
     17.481597
    ]
   },
   "properties": {
    "id": "police-51",
    "name": "Police Station",
    "type": "police"
   }
  },
  {
   "type": "Feature",
   "geometry": {
    "type": "Point",
    "coordinates": [
     78.570848,
     17.472752
    ]
   },
   "properties": {
    "id": "police-52",
    "name": "Kushaiguda Police station",
    "type": "police"
   }
  },
  {
   "type": "Feature",
   "geometry": {
    "type": "Point",
    "coordinates": [
     78.511667,
     17.50404
    ]
   },
   "properties": {
    "id": "police-53",
    "name": "Alwal Police Station",
    "type": "police"
   }
  },
  {
   "type": "Feature",
   "geometry": {
    "type": "Point",
    "coordinates": [
     78.448492,
     17.50919
    ]
   },
   "properties": {
    "id": "police-54",
    "name": "Jeedimetla Police Station",
    "type": "police"
   }
  },
  {
   "type": "Feature",
   "geometry": {
    "type": "Point",
    "coordinates": [
     78.353765,
     17.443513
    ]
   },
   "properties": {
    "id": "police-55",
    "name": "Gachibowli Police station",
    "type": "police"
   }
  },
  {
   "type": "Feature",
   "geometry": {
    "type": "Point",
    "coordinates": [
     78.422701,
     17.506386
    ]
   },
   "properties": {
    "id": "police-56",
    "name": "Jagadgirigutta Police Station",
    "type": "police"
   }
  },
  {
   "type": "Feature",
   "geometry": {
    "type": "Point",
    "coordinates": [
     78.3957,
     17.49674
    ]
   },
   "properties": {
    "id": "police-57",
    "name": "KPHB Police Station",
    "type": "police"
   }
  },
  {
   "type": "Feature",
   "geometry": {
    "type": "Point",
    "coordinates": [
     78.434679,
     17.534999
    ]
   },
   "properties": {
    "id": "police-58",
    "name": "Police station",
    "type": "police"
   }
  },
  {
   "type": "Feature",
   "geometry": {
    "type": "Point",
    "coordinates": [
     78.347549,
     17.496417
    ]
   },
   "properties": {
    "id": "police-59",
    "name": "Miyapur Police Strion",
    "type": "police"
   }
  },
  {
   "type": "Feature",
   "geometry": {
    "type": "Point",
    "coordinates": [
     78.324924,
     17.496203
    ]
   },
   "properties": {
    "id": "police-60",
    "name": "Chanda Nagar Police Station",
    "type": "police"
   }
  },
  {
   "type": "Feature",
   "geometry": {
    "type": "Point",
    "coordinates": [
     78.316331,
     17.494456
    ]
   },
   "properties": {
    "id": "police-61",
    "name": "Ramachndrapuram Police Station",
    "type": "police"
   }
  },
  {
   "type": "Feature",
   "geometry": {
    "type": "Point",
    "coordinates": [
     78.4999031,
     17.3655267
    ]
   },
   "properties": {
    "id": "police-62",
    "name": "Police station (unnamed in OSM)",
    "type": "police"
   }
  },
  {
   "type": "Feature",
   "geometry": {
    "type": "Point",
    "coordinates": [
     78.4820816,
     17.3714465
    ]
   },
   "properties": {
    "id": "police-63",
    "name": "Police station (unnamed in OSM)",
    "type": "police"
   }
  },
  {
   "type": "Feature",
   "geometry": {
    "type": "Point",
    "coordinates": [
     78.5493729,
     17.4265322
    ]
   },
   "properties": {
    "id": "police-64",
    "name": "Police station (unnamed in OSM)",
    "type": "police"
   }
  },
  {
   "type": "Feature",
   "geometry": {
    "type": "Point",
    "coordinates": [
     78.5004605,
     17.4618242
    ]
   },
   "properties": {
    "id": "police-65",
    "name": "Karkhana Traffic Police Station",
    "type": "police"
   }
  },
  {
   "type": "Feature",
   "geometry": {
    "type": "Point",
    "coordinates": [
     78.4790905,
     17.4436297
    ]
   },
   "properties": {
    "id": "police-66",
    "name": "Begumpet Traffic Police",
    "type": "police"
   }
  },
  {
   "type": "Feature",
   "geometry": {
    "type": "Point",
    "coordinates": [
     78.4649177,
     17.4223157
    ]
   },
   "properties": {
    "id": "police-67",
    "name": "Police station (unnamed in OSM)",
    "type": "police"
   }
  },
  {
   "type": "Feature",
   "geometry": {
    "type": "Point",
    "coordinates": [
     78.4839215,
     17.4211388
    ]
   },
   "properties": {
    "id": "police-68",
    "name": "Police station (unnamed in OSM)",
    "type": "police"
   }
  },
  {
   "type": "Feature",
   "geometry": {
    "type": "Point",
    "coordinates": [
     78.5365773,
     17.3686441
    ]
   },
   "properties": {
    "id": "police-69",
    "name": "Police station (unnamed in OSM)",
    "type": "police"
   }
  },
  {
   "type": "Feature",
   "geometry": {
    "type": "Point",
    "coordinates": [
     78.46836,
     17.3349988
    ]
   },
   "properties": {
    "id": "police-70",
    "name": "Police station (unnamed in OSM)",
    "type": "police"
   }
  },
  {
   "type": "Feature",
   "geometry": {
    "type": "Point",
    "coordinates": [
     78.4689352,
     17.3923657
    ]
   },
   "properties": {
    "id": "police-71",
    "name": "Police station (unnamed in OSM)",
    "type": "police"
   }
  },
  {
   "type": "Feature",
   "geometry": {
    "type": "Point",
    "coordinates": [
     78.4761757,
     17.3889758
    ]
   },
   "properties": {
    "id": "police-72",
    "name": "Abids traffic police station",
    "type": "police"
   }
  },
  {
   "type": "Feature",
   "geometry": {
    "type": "Point",
    "coordinates": [
     78.3519936,
     17.4458549
    ]
   },
   "properties": {
    "id": "police-73",
    "name": "Gachibowli traffic police station",
    "type": "police"
   }
  },
  {
   "type": "Feature",
   "geometry": {
    "type": "Point",
    "coordinates": [
     78.4581018,
     17.3989925
    ]
   },
   "properties": {
    "id": "police-74",
    "name": "Asif Nagar Traffic Police Station",
    "type": "police"
   }
  },
  {
   "type": "Feature",
   "geometry": {
    "type": "Point",
    "coordinates": [
     78.6027803,
     17.3276128
    ]
   },
   "properties": {
    "id": "police-75",
    "name": "Police station (unnamed in OSM)",
    "type": "police"
   }
  },
  {
   "type": "Feature",
   "geometry": {
    "type": "Point",
    "coordinates": [
     78.5040109,
     17.3628131
    ]
   },
   "properties": {
    "id": "police-76",
    "name": "Police station (unnamed in OSM)",
    "type": "police"
   }
  },
  {
   "type": "Feature",
   "geometry": {
    "type": "Point",
    "coordinates": [
     78.493562,
     17.382365
    ]
   },
   "properties": {
    "id": "police-77",
    "name": "Kachiguda Traffic Police Station",
    "type": "police"
   }
  },
  {
   "type": "Feature",
   "geometry": {
    "type": "Point",
    "coordinates": [
     78.2649702,
     17.5296566
    ]
   },
   "properties": {
    "id": "police-78",
    "name": "DSP office",
    "type": "police"
   }
  },
  {
   "type": "Feature",
   "geometry": {
    "type": "Point",
    "coordinates": [
     78.264711,
     17.5297092
    ]
   },
   "properties": {
    "id": "police-79",
    "name": "Police Station",
    "type": "police"
   }
  },
  {
   "type": "Feature",
   "geometry": {
    "type": "Point",
    "coordinates": [
     78.364221,
     17.4628678
    ]
   },
   "properties": {
    "id": "police-80",
    "name": "Police station (unnamed in OSM)",
    "type": "police"
   }
  },
  {
   "type": "Feature",
   "geometry": {
    "type": "Point",
    "coordinates": [
     78.3615646,
     17.4964332
    ]
   },
   "properties": {
    "id": "police-81",
    "name": "Miyapur Traffic Police Station",
    "type": "police"
   }
  },
  {
   "type": "Feature",
   "geometry": {
    "type": "Point",
    "coordinates": [
     78.5000445,
     17.458988
    ]
   },
   "properties": {
    "id": "police-82",
    "name": "Karkhana Police Station",
    "type": "police"
   }
  },
  {
   "type": "Feature",
   "geometry": {
    "type": "Point",
    "coordinates": [
     78.5114764,
     17.4802402
    ]
   },
   "properties": {
    "id": "police-83",
    "name": "Police station (unnamed in OSM)",
    "type": "police"
   }
  },
  {
   "type": "Feature",
   "geometry": {
    "type": "Point",
    "coordinates": [
     78.3808903,
     17.4513495
    ]
   },
   "properties": {
    "id": "police-84",
    "name": "Madhapur traffic police booth Cyberabad",
    "type": "police"
   }
  },
  {
   "type": "Feature",
   "geometry": {
    "type": "Point",
    "coordinates": [
     78.4185614,
     17.4801354
    ]
   },
   "properties": {
    "id": "police-85",
    "name": "traffic police station",
    "type": "police"
   }
  },
  {
   "type": "Feature",
   "geometry": {
    "type": "Point",
    "coordinates": [
     78.4752661,
     17.3618349
    ]
   },
   "properties": {
    "id": "police-86",
    "name": "Traffic Police Station Charminar",
    "type": "police"
   }
  },
  {
   "type": "Feature",
   "geometry": {
    "type": "Point",
    "coordinates": [
     78.5579354,
     17.3616089
    ]
   },
   "properties": {
    "id": "police-87",
    "name": "Traffic Police Station",
    "type": "police"
   }
  },
  {
   "type": "Feature",
   "geometry": {
    "type": "Point",
    "coordinates": [
     78.3699438,
     17.4316271
    ]
   },
   "properties": {
    "id": "police-88",
    "name": "Police station (unnamed in OSM)",
    "type": "police"
   }
  },
  {
   "type": "Feature",
   "geometry": {
    "type": "Point",
    "coordinates": [
     78.3537653,
     17.4435126
    ]
   },
   "properties": {
    "id": "police-89",
    "name": "Gachibowli Police station",
    "type": "police"
   }
  },
  {
   "type": "Feature",
   "geometry": {
    "type": "Point",
    "coordinates": [
     78.4523748,
     17.4262429
    ]
   },
   "properties": {
    "id": "police-90",
    "name": "Punjagutta Police Station",
    "type": "police"
   }
  },
  {
   "type": "Feature",
   "geometry": {
    "type": "Point",
    "coordinates": [
     78.5602993,
     17.4022297
    ]
   },
   "properties": {
    "id": "police-91",
    "name": "Police station (unnamed in OSM)",
    "type": "police"
   }
  },
  {
   "type": "Feature",
   "geometry": {
    "type": "Point",
    "coordinates": [
     78.340686,
     17.4256406
    ]
   },
   "properties": {
    "id": "police-92",
    "name": "Traffice Police Watch Tower",
    "type": "police"
   }
  },
  {
   "type": "Feature",
   "geometry": {
    "type": "Point",
    "coordinates": [
     78.5174291,
     17.3871953
    ]
   },
   "properties": {
    "id": "police-93",
    "name": "Police training center",
    "type": "police"
   }
  }
 ]
}