{
 "type": "FeatureCollection",
 "features": [
  {
   "type": "Feature",
   "geometry": {
    "type": "Point",
    "coordinates": [
     72.541413,
     23.029182
    ]
   },
   "properties": {
    "id": "women-0",
    "name": "Mahila Police station West",
    "type": "women"
   }
  },
  {
   "type": "Feature",
   "geometry": {
    "type": "Point",
    "coordinates": [
     72.571642,
     23.022886
    ]
   },
   "properties": {
    "id": "police-0",
    "name": "Ellisbridge Police Station",
    "type": "police"
   }
  },
  {
   "type": "Feature",
   "geometry": {
    "type": "Point",
    "coordinates": [
     72.582039,
     23.02451
    ]
   },
   "properties": {
    "id": "police-1",
    "name": "Karanj Police Station",
    "type": "police"
   }
  },
  {
   "type": "Feature",
   "geometry": {
    "type": "Point",
    "coordinates": [
     72.567223,
     23.035009
    ]
   },
   "properties": {
    "id": "police-2",
    "name": "Navarangpura Police Station",
    "type": "police"
   }
  },
  {
   "type": "Feature",
   "geometry": {
    "type": "Point",
    "coordinates": [
     72.584131,
     23.030649
    ]
   },
   "properties": {
    "id": "police-3",
    "name": "Karanj Police Station",
    "type": "police"
   }
  },
  {
   "type": "Feature",
   "geometry": {
    "type": "Point",
    "coordinates": [
     72.584296,
     23.030756
    ]
   },
   "properties": {
    "id": "police-4",
    "name": "Karanj Police Station",
    "type": "police"
   }
  },
  {
   "type": "Feature",
   "geometry": {
    "type": "Point",
    "coordinates": [
     72.55637,
     23.006513
    ]
   },
   "properties": {
    "id": "police-5",
    "name": "Paldi Police Station",
    "type": "police"
   }
  },
  {
   "type": "Feature",
   "geometry": {
    "type": "Point",
    "coordinates": [
     72.593849,
     23.028067
    ]
   },
   "properties": {
    "id": "police-6",
    "name": "kalupur Police Station",
    "type": "police"
   }
  },
  {
   "type": "Feature",
   "geometry": {
    "type": "Point",
    "coordinates": [
     72.581254,
     22.999016
    ]
   },
   "properties": {
    "id": "police-7",
    "name": "Danilimda Police Station",
    "type": "police"
   }
  },
  {
   "type": "Feature",
   "geometry": {
    "type": "Point",
    "coordinates": [
     72.540599,
     23.034745
    ]
   },
   "properties": {
    "id": "police-8",
    "name": "Gujarat university police station",
    "type": "police"
   }
  },
  {
   "type": "Feature",
   "geometry": {
    "type": "Point",
    "coordinates": [
     72.553017,
     23.046706
    ]
   },
   "properties": {
    "id": "police-9",
    "name": "Police Station, Hatkesh",
    "type": "police"
   }
  },
  {
   "type": "Feature",
   "geometry": {
    "type": "Point",
    "coordinates": [
     72.588887,
     23.049785
    ]
   },
   "properties": {
    "id": "police-10",
    "name": "Shahibaug Police Station",
    "type": "police"
   }
  },
  {
   "type": "Feature",
   "geometry": {
    "type": "Point",
    "coordinates": [
     72.602329,
     22.99845
    ]
   },
   "properties": {
    "id": "police-11",
    "name": "Maninagar Police Station",
    "type": "police"
   }
  },
  {
   "type": "Feature",
   "geometry": {
    "type": "Point",
    "coordinates": [
     72.537185,
     22.996719
    ]
   },
   "properties": {
    "id": "police-12",
    "name": "Vejalpur Police Station",
    "type": "police"
   }
  },
  {
   "type": "Feature",
   "geometry": {
    "type": "Point",
    "coordinates": [
     72.612271,
     23.021011
    ]
   },
   "properties": {
    "id": "police-13",
    "name": "Gomptipur Police Station",
    "type": "police"
   }
  },
  {
   "type": "Feature",
   "geometry": {
    "type": "Point",
    "coordinates": [
     72.566207,
     23.06347
    ]
   },
   "properties": {
    "id": "police-14",
    "name": "Naranpura Police Station",
    "type": "police"
   }
  },
  {
   "type": "Feature",
   "geometry": {
    "type": "Point",
    "coordinates": [
     72.522662,
     23.004101
    ]
   },
   "properties": {
    "id": "police-15",
    "name": "Vejalpur Police Chowky",
    "type": "police"
   }
  },
  {
   "type": "Feature",
   "geometry": {
    "type": "Point",
    "coordinates": [
     72.61969,
     23.001662
    ]
   },
   "properties": {
    "id": "police-16",
    "name": "Khokhra Police Station",
    "type": "police"
   }
  },
  {
   "type": "Feature",
   "geometry": {
    "type": "Point",
    "coordinates": [
     72.523265,
     23.049178
    ]
   },
   "properties": {
    "id": "police-17",
    "name": "Vastrapur Police Station",
    "type": "police"
   }
  },
  {
   "type": "Feature",
   "geometry": {
    "type": "Point",
    "coordinates": [
     72.510996,
     23.027693
    ]
   },
   "properties": {
    "id": "police-18",
    "name": "Satelite Police Station",
    "type": "police"
   }
  },
  {
   "type": "Feature",
   "geometry": {
    "type": "Point",
    "coordinates": [
     72.631356,
     23.032436
    ]
   },
   "properties": {
    "id": "police-19",
    "name": "Bapunagar Police Station",
    "type": "police"
   }
  },
  {
   "type": "Feature",
   "geometry": {
    "type": "Point",
    "coordinates": [
     72.578572,
     23.080519
    ]
   },
   "properties": {
    "id": "police-20",
    "name": "Maganpura Police Chowki",
    "type": "police"
   }
  },
  {
   "type": "Feature",
   "geometry": {
    "type": "Point",
    "coordinates": [
     72.577996,
     23.080607
    ]
   },
   "properties": {
    "id": "police-21",
    "name": "Ranip Police Station",
    "type": "police"
   }
  },
  {
   "type": "Feature",
   "geometry": {
    "type": "Point",
    "coordinates": [
     72.591623,
     23.085266
    ]
   },
   "properties": {
    "id": "police-22",
    "name": "Sabarmati Police Station",
    "type": "police"
   }
  },
  {
   "type": "Feature",
   "geometry": {
    "type": "Point",
    "coordinates": [
     72.6275,
     22.971854
    ]
   },
   "properties": {
    "id": "police-23",
    "name": "Vatva police",
    "type": "police"
   }
  },
  {
   "type": "Feature",
   "geometry": {
    "type": "Point",
    "coordinates": [
     72.611723,
     22.957708
    ]
   },
   "properties": {
    "id": "police-24",
    "name": "Vatva Police Station",
    "type": "police"
   }
  },
  {
   "type": "Feature",
   "geometry": {
    "type": "Point",
    "coordinates": [
     72.620522,
     23.080429
    ]
   },
   "properties": {
    "id": "police-25",
    "name": "Sardarnagar Police Station",
    "type": "police"
   }
  },
  {
   "type": "Feature",
   "geometry": {
    "type": "Point",
    "coordinates": [
     72.529072,
     23.086956
    ]
   },
   "properties": {
    "id": "police-26",
    "name": "SOLA POLICE STATION",
    "type": "police"
   }
  },
  {
   "type": "Feature",
   "geometry": {
    "type": "Point",
    "coordinates": [
     72.672498,
     23.02594
    ]
   },
   "properties": {
    "id": "police-27",
    "name": "Odhav police station (new building)",
    "type": "police"
   }
  },
  {
   "type": "Feature",
   "geometry": {
    "type": "Point",
    "coordinates": [
     72.686768,
     23.08872
    ]
   },
   "properties": {
    "id": "police-28",
    "name": "Hanspura/Dehgam naka police station",
    "type": "police"
   }
  },
  {
   "type": "Feature",
   "geometry": {
    "type": "Point",
    "coordinates": [
     72.5405988,
     23.0347446
    ]
   },
   "properties": {
    "id": "police-29",
    "name": "Gujarat university police station",
    "type": "police"
   }
  },
  {
   "type": "Feature",
   "geometry": {
    "type": "Point",
    "coordinates": [
     72.5232653,
     23.0491783
    ]
   },
   "properties": {
    "id": "police-30",
    "name": "Vastrapur Police Station",
    "type": "police"
   }
  },
  {
   "type": "Feature",
   "geometry": {
    "type": "Point",
    "coordinates": [
     72.6228096,
     23.0214014
    ]
   },
   "properties": {
    "id": "police-31",
    "name": "Police station (unnamed in OSM)",
    "type": "police"
   }
  }
 ]
}