{
 "type": "FeatureCollection",
 "features": [
  {
   "type": "Feature",
   "geometry": {
    "type": "Point",
    "coordinates": [
     76.968346,
     11.015569
    ]
   },
   "properties": {
    "id": "women-0",
    "name": "Womens Police Station",
    "type": "women"
   }
  },
  {
   "type": "Feature",
   "geometry": {
    "type": "Point",
    "coordinates": [
     76.968262,
     11.014592
    ]
   },
   "properties": {
    "id": "police-0",
    "name": "C1 Katoor Police Station",
    "type": "police"
   }
  },
  {
   "type": "Feature",
   "geometry": {
    "type": "Point",
    "coordinates": [
     76.968307,
     11.015303
    ]
   },
   "properties": {
    "id": "police-1",
    "name": "Kattor Police Station",
    "type": "police"
   }
  },
  {
   "type": "Feature",
   "geometry": {
    "type": "Point",
    "coordinates": [
     76.950031,
     11.005326
    ]
   },
   "properties": {
    "id": "police-2",
    "name": "B-2 R.S.Puram police station",
    "type": "police"
   }
  },
  {
   "type": "Feature",
   "geometry": {
    "type": "Point",
    "coordinates": [
     76.968164,
     11.000747
    ]
   },
   "properties": {
    "id": "police-3",
    "name": "Commisioner Office",
    "type": "police"
   }
  },
  {
   "type": "Feature",
   "geometry": {
    "type": "Point",
    "coordinates": [
     76.967781,
     10.999002
    ]
   },
   "properties": {
    "id": "police-4",
    "name": "District Police Office",
    "type": "police"
   }
  },
  {
   "type": "Feature",
   "geometry": {
    "type": "Point",
    "coordinates": [
     76.971318,
     11.001692
    ]
   },
   "properties": {
    "id": "police-5",
    "name": "C2- Race Course Police Station, Coimbatore",
    "type": "police"
   }
  },
  {
   "type": "Feature",
   "geometry": {
    "type": "Point",
    "coordinates": [
     76.959131,
     10.992485
    ]
   },
   "properties": {
    "id": "police-6",
    "name": "B1 POLICE STATION",
    "type": "police"
   }
  },
  {
   "type": "Feature",
   "geometry": {
    "type": "Point",
    "coordinates": [
     76.968936,
     11.025297
    ]
   },
   "properties": {
    "id": "police-7",
    "name": "Rathinapuri B-15 Police Station",
    "type": "police"
   }
  },
  {
   "type": "Feature",
   "geometry": {
    "type": "Point",
    "coordinates": [
     76.951597,
     11.026635
    ]
   },
   "properties": {
    "id": "police-8",
    "name": "C-3 Saibaba Colony Police Station",
    "type": "police"
   }
  },
  {
   "type": "Feature",
   "geometry": {
    "type": "Point",
    "coordinates": [
     76.971575,
     11.025034
    ]
   },
   "properties": {
    "id": "police-9",
    "name": "Rathinapuri Police Station",
    "type": "police"
   }
  },
  {
   "type": "Feature",
   "geometry": {
    "type": "Point",
    "coordinates": [
     76.961534,
     10.989004
    ]
   },
   "properties": {
    "id": "police-10",
    "name": "Ukkadam Police Station(B2)",
    "type": "police"
   }
  },
  {
   "type": "Feature",
   "geometry": {
    "type": "Point",
    "coordinates": [
     76.991672,
     11.002826
    ]
   },
   "properties": {
    "id": "police-11",
    "name": "Ramanathapuram Police Station",
    "type": "police"
   }
  },
  {
   "type": "Feature",
   "geometry": {
    "type": "Point",
    "coordinates": [
     76.997871,
     10.997583
    ]
   },
   "properties": {
    "id": "police-12",
    "name": "Ramanathapuram police station",
    "type": "police"
   }
  },
  {
   "type": "Feature",
   "geometry": {
    "type": "Point",
    "coordinates": [
     76.978101,
     10.967757
    ]
   },
   "properties": {
    "id": "police-13",
    "name": "Podanur Police Station",
    "type": "police"
   }
  },
  {
   "type": "Feature",
   "geometry": {
    "type": "Point",
    "coordinates": [
     76.985466,
     10.965879
    ]
   },
   "properties": {
    "id": "police-14",
    "name": "Podanur Police Station",
    "type": "police"
   }
  },
  {
   "type": "Feature",
   "geometry": {
    "type": "Point",
    "coordinates": [
     77.010163,
     11.025364
    ]
   },
   "properties": {
    "id": "police-15",
    "name": "Peelamedu E2 Police Station",
    "type": "police"
   }
  },
  {
   "type": "Feature",
   "geometry": {
    "type": "Point",
    "coordinates": [
     77.006204,
     11.041279
    ]
   },
   "properties": {
    "id": "police-16",
    "name": "Gandhimanagar Police Station",
    "type": "police"
   }
  },
  {
   "type": "Feature",
   "geometry": {
    "type": "Point",
    "coordinates": [
     77.028842,
     11.002596
    ]
   },
   "properties": {
    "id": "police-17",
    "name": "Out Post Police Station - Singanallur",
    "type": "police"
   }
  },
  {
   "type": "Feature",
   "geometry": {
    "type": "Point",
    "coordinates": [
     77.029689,
     11.0004
    ]
   },
   "properties": {
    "id": "police-18",
    "name": "E1 Singanallur Police Station",
    "type": "police"
   }
  },
  {
   "type": "Feature",
   "geometry": {
    "type": "Point",
    "coordinates": [
     76.939124,
     10.941424
    ]
   },
   "properties": {
    "id": "police-19",
    "name": "TN Police Battallion",
    "type": "police"
   }
  },
  {
   "type": "Feature",
   "geometry": {
    "type": "Point",
    "coordinates": [
     76.939639,
     10.941258
    ]
   },
   "properties": {
    "id": "police-20",
    "name": "Police training camp 4th battalion in coimbatore",
    "type": "police"
   }
  },
  {
   "type": "Feature",
   "geometry": {
    "type": "Point",
    "coordinates": [
     76.894905,
     11.045288
    ]
   },
   "properties": {
    "id": "police-21",
    "name": "vadavalli police station",
    "type": "police"
   }
  },
  {
   "type": "Feature",
   "geometry": {
    "type": "Point",
    "coordinates": [
     76.941239,
     11.081943
    ]
   },
   "properties": {
    "id": "police-22",
    "name": "Thudiyalur Police Station",
    "type": "police"
   }
  },
  {
   "type": "Feature",
   "geometry": {
    "type": "Point",
    "coordinates": [
     76.941241,
     11.082068
    ]
   },
   "properties": {
    "id": "police-23",
    "name": "Thudiyalur Police Station",
    "type": "police"
   }
  },
  {
   "type": "Feature",
   "geometry": {
    "type": "Point",
    "coordinates": [
     77.00271,
     11.074717
    ]
   },
   "properties": {
    "id": "police-24",
    "name": "B9 Saravanampatty Police Station",
    "type": "police"
   }
  },
  {
   "type": "Feature",
   "geometry": {
    "type": "Point",
    "coordinates": [
     77.002712,
     11.07473
    ]
   },
   "properties": {
    "id": "police-25",
    "name": "Saravanampatti Police Station",
    "type": "police"
   }
  },
  {
   "type": "Feature",
   "geometry": {
    "type": "Point",
    "coordinates": [
     76.94904,
     10.911453
    ]
   },
   "properties": {
    "id": "police-26",
    "name": "Madukkarai Police Station",
    "type": "police"
   }
  },
  {
   "type": "Feature",
   "geometry": {
    "type": "Point",
    "coordinates": [
     76.84246,
     10.9913
    ]
   },
   "properties": {
    "id": "police-27",
    "name": "Thondamuthur Police Station",
    "type": "police"
   }
  },
  {
   "type": "Feature",
   "geometry": {
    "type": "Point",
    "coordinates": [
     77.03774,
     10.917471
    ]
   },
   "properties": {
    "id": "police-28",
    "name": "Chettipalayam Police Station",
    "type": "police"
   }
  },
  {
   "type": "Feature",
   "geometry": {
    "type": "Point",
    "coordinates": [
     76.895057,
     10.875524
    ]
   },
   "properties": {
    "id": "police-29",
    "name": "K G Chavadi Police",
    "type": "police"
   }
  },
  {
   "type": "Feature",
   "geometry": {
    "type": "Point",
    "coordinates": [
     77.120484,
     11.024861
    ]
   },
   "properties": {
    "id": "police-30",
    "name": "Sulur Police Station",
    "type": "police"
   }
  },
  {
   "type": "Feature",
   "geometry": {
    "type": "Point",
    "coordinates": [
     76.813478,
     10.822768
    ]
   },
   "properties": {
    "id": "police-31",
    "name": "Police Station, Walayar",
    "type": "police"
   }
  },
  {
   "type": "Feature",
   "geometry": {
    "type": "Point",
    "coordinates": [
     76.9681824,
     10.9952707
    ]
   },
   "properties": {
    "id": "police-32",
    "name": "Police station (unnamed in OSM)",
    "type": "police"
   }
  },
  {
   "type": "Feature",
   "geometry": {
    "type": "Point",
    "coordinates": [
     76.9515967,
     11.0266348
    ]
   },
   "properties": {
    "id": "police-33",
    "name": "C-3 Saibaba Colony Police Station",
    "type": "police"
   }
  },
  {
   "type": "Feature",
   "geometry": {
    "type": "Point",
    "coordinates": [
     76.9591307,
     10.9924847
    ]
   },
   "properties": {
    "id": "police-34",
    "name": "B1 POLICE STATION",
    "type": "police"
   }
  },
  {
   "type": "Feature",
   "geometry": {
    "type": "Point",
    "coordinates": [
     76.9354528,
     10.988383
    ]
   },
   "properties": {
    "id": "police-35",
    "name": "Police station (unnamed in OSM)",
    "type": "police"
   }
  },
  {
   "type": "Feature",
   "geometry": {
    "type": "Point",
    "coordinates": [
     76.9715748,
     11.0250344
    ]
   },
   "properties": {
    "id": "police-36",
    "name": "Rathinapuri Police Station",
    "type": "police"
   }
  },
  {
   "type": "Feature",
   "geometry": {
    "type": "Point",
    "coordinates": [
     76.963933,
     10.9875675
    ]
   },
   "properties": {
    "id": "police-37",
    "name": "Police station (unnamed in OSM)",
    "type": "police"
   }
  },
  {
   "type": "Feature",
   "geometry": {
    "type": "Point",
    "coordinates": [
     76.9411896,
     11.0821749
    ]
   },
   "properties": {
    "id": "police-38",
    "name": "Police station (unnamed in OSM)",
    "type": "police"
   }
  },
  {
   "type": "Feature",
   "geometry": {
    "type": "Point",
    "coordinates": [
     76.8949051,
     11.0452875
    ]
   },
   "properties": {
    "id": "police-39",
    "name": "vadavalli police station",
    "type": "police"
   }
  },
  {
   "type": "Feature",
   "geometry": {
    "type": "Point",
    "coordinates": [
     76.9516544,
     11.0266436
    ]
   },
   "properties": {
    "id": "police-40",
    "name": "Police station (unnamed in OSM)",
    "type": "police"
   }
  },
  {
   "type": "Feature",
   "geometry": {
    "type": "Point",
    "coordinates": [
     77.0296247,
     11.0001594
    ]
   },
   "properties": {
    "id": "police-41",
    "name": "Police station (unnamed in OSM)",
    "type": "police"
   }
  },
  {
   "type": "Feature",
   "geometry": {
    "type": "Point",
    "coordinates": [
     77.0296799,
     11.0000407
    ]
   },
   "properties": {
    "id": "police-42",
    "name": "Police station (unnamed in OSM)",
    "type": "police"
   }
  },
  {
   "type": "Feature",
   "geometry": {
    "type": "Point",
    "coordinates": [
     77.0297109,
     10.999916
    ]
   },
   "properties": {
    "id": "police-43",
    "name": "Police station (unnamed in OSM)",
    "type": "police"
   }
  },
  {
   "type": "Feature",
   "geometry": {
    "type": "Point",
    "coordinates": [
     77.0298438,
     11.0001463
    ]
   },
   "properties": {
    "id": "police-44",
    "name": "Police station (unnamed in OSM)",
    "type": "police"
   }
  }
 ]
}