{
 "type": "FeatureCollection",
 "features": [
  {
   "type": "Feature",
   "geometry": {
    "type": "Point",
    "coordinates": [
     75.804212,
     26.881548
    ]
   },
   "properties": {
    "id": "women-0",
    "name": "Mahila Thana East Gandhinagar",
    "type": "women"
   }
  },
  {
   "type": "Feature",
   "geometry": {
    "type": "Point",
    "coordinates": [
     75.795077,
     26.917791
    ]
   },
   "properties": {
    "id": "police-0",
    "name": "Police Station",
    "type": "police"
   }
  },
  {
   "type": "Feature",
   "geometry": {
    "type": "Point",
    "coordinates": [
     75.776367,
     26.901904
    ]
   },
   "properties": {
    "id": "police-1",
    "name": "Sodala Thana",
    "type": "police"
   }
  },
  {
   "type": "Feature",
   "geometry": {
    "type": "Point",
    "coordinates": [
     75.7988,
     26.885497
    ]
   },
   "properties": {
    "id": "police-2",
    "name": "rajasthan police headquaters",
    "type": "police"
   }
  },
  {
   "type": "Feature",
   "geometry": {
    "type": "Point",
    "coordinates": [
     75.798878,
     26.885293
    ]
   },
   "properties": {
    "id": "police-3",
    "name": "rajasthan police headquaters",
    "type": "police"
   }
  },
  {
   "type": "Feature",
   "geometry": {
    "type": "Point",
    "coordinates": [
     75.787859,
     26.938816
    ]
   },
   "properties": {
    "id": "police-4",
    "name": "Panipech police Station",
    "type": "police"
   }
  },
  {
   "type": "Feature",
   "geometry": {
    "type": "Point",
    "coordinates": [
     75.812957,
     26.884093
    ]
   },
   "properties": {
    "id": "police-5",
    "name": "Police Station Gandhi Circle",
    "type": "police"
   }
  },
  {
   "type": "Feature",
   "geometry": {
    "type": "Point",
    "coordinates": [
     75.799676,
     26.877645
    ]
   },
   "properties": {
    "id": "police-6",
    "name": "Bajaj Nagar Police Station",
    "type": "police"
   }
  },
  {
   "type": "Feature",
   "geometry": {
    "type": "Point",
    "coordinates": [
     75.827104,
     26.922422
    ]
   },
   "properties": {
    "id": "police-7",
    "name": "policr thana manak chowk",
    "type": "police"
   }
  },
  {
   "type": "Feature",
   "geometry": {
    "type": "Point",
    "coordinates": [
     75.82756,
     26.923181
    ]
   },
   "properties": {
    "id": "police-8",
    "name": "Police Thana Manak Chowk",
    "type": "police"
   }
  },
  {
   "type": "Feature",
   "geometry": {
    "type": "Point",
    "coordinates": [
     75.834884,
     26.902427
    ]
   },
   "properties": {
    "id": "police-9",
    "name": "Police Station Adarsh Nagar",
    "type": "police"
   }
  },
  {
   "type": "Feature",
   "geometry": {
    "type": "Point",
    "coordinates": [
     75.832482,
     26.92907
    ]
   },
   "properties": {
    "id": "police-10",
    "name": "Police Station Subhash Chowk , Jaipur",
    "type": "police"
   }
  },
  {
   "type": "Feature",
   "geometry": {
    "type": "Point",
    "coordinates": [
     75.735585,
     26.915392
    ]
   },
   "properties": {
    "id": "police-11",
    "name": "Police Station Vaishali Nagar",
    "type": "police"
   }
  },
  {
   "type": "Feature",
   "geometry": {
    "type": "Point",
    "coordinates": [
     75.734297,
     26.899443
    ]
   },
   "properties": {
    "id": "police-12",
    "name": "Chitrakoot police Station",
    "type": "police"
   }
  },
  {
   "type": "Feature",
   "geometry": {
    "type": "Point",
    "coordinates": [
     75.733124,
     26.896756
    ]
   },
   "properties": {
    "id": "police-13",
    "name": "Karni Vihar Police Station Jaipur",
    "type": "police"
   }
  },
  {
   "type": "Feature",
   "geometry": {
    "type": "Point",
    "coordinates": [
     75.731353,
     26.946228
    ]
   },
   "properties": {
    "id": "police-14",
    "name": "Kalwad pulia police station.",
    "type": "police"
   }
  },
  {
   "type": "Feature",
   "geometry": {
    "type": "Point",
    "coordinates": [
     75.764783,
     26.970402
    ]
   },
   "properties": {
    "id": "police-15",
    "name": "Police Station Murlipura",
    "type": "police"
   }
  },
  {
   "type": "Feature",
   "geometry": {
    "type": "Point",
    "coordinates": [
     75.774537,
     26.978091
    ]
   },
   "properties": {
    "id": "police-16",
    "name": "Vishwakarma Police Station",
    "type": "police"
   }
  },
  {
   "type": "Feature",
   "geometry": {
    "type": "Point",
    "coordinates": [
     75.71192,
     26.953527
    ]
   },
   "properties": {
    "id": "police-17",
    "name": "Kardhani Police Station",
    "type": "police"
   }
  },
  {
   "type": "Feature",
   "geometry": {
    "type": "Point",
    "coordinates": [
     75.797164,
     26.819525
    ]
   },
   "properties": {
    "id": "police-18",
    "name": "Sanganer Police Station",
    "type": "police"
   }
  },
  {
   "type": "Feature",
   "geometry": {
    "type": "Point",
    "coordinates": [
     75.797715,
     27.007842
    ]
   },
   "properties": {
    "id": "police-19",
    "name": "Police chowki",
    "type": "police"
   }
  },
  {
   "type": "Feature",
   "geometry": {
    "type": "Point",
    "coordinates": [
     75.769025,
     27.013174
    ]
   },
   "properties": {
    "id": "police-20",
    "name": "Harmara Police Station",
    "type": "police"
   }
  },
  {
   "type": "Feature",
   "geometry": {
    "type": "Point",
    "coordinates": [
     75.822538,
     26.783473
    ]
   },
   "properties": {
    "id": "police-21",
    "name": "Sanganer Sadar Police Station",
    "type": "police"
   }
  }
 ]
}