{
 "type": "FeatureCollection",
 "features": [
  {
   "type": "Feature",
   "geometry": {
    "type": "Point",
    "coordinates": [
     72.803701,
     21.179125
    ]
   },
   "properties": {
    "id": "women-0",
    "name": "Mahila Police Station",
    "type": "women"
   }
  },
  {
   "type": "Feature",
   "geometry": {
    "type": "Point",
    "coordinates": [
     72.830086,
     21.168991
    ]
   },
   "properties": {
    "id": "police-0",
    "name": "Digital Printer",
    "type": "police"
   }
  },
  {
   "type": "Feature",
   "geometry": {
    "type": "Point",
    "coordinates": [
     72.802754,
     21.180133
    ]
   },
   "properties": {
    "id": "police-1",
    "name": "Police Parade Ground",
    "type": "police"
   }
  },
  {
   "type": "Feature",
   "geometry": {
    "type": "Point",
    "coordinates": [
     72.819454,
     21.198325
    ]
   },
   "properties": {
    "id": "police-2",
    "name": "Chowk Bazar Police Station (Furja)",
    "type": "police"
   }
  },
  {
   "type": "Feature",
   "geometry": {
    "type": "Point",
    "coordinates": [
     72.823971,
     21.205103
    ]
   },
   "properties": {
    "id": "police-3",
    "name": "Vairyali bazar Police Chowki",
    "type": "police"
   }
  },
  {
   "type": "Feature",
   "geometry": {
    "type": "Point",
    "coordinates": [
     72.78033,
     21.164831
    ]
   },
   "properties": {
    "id": "police-4",
    "name": "Piplod Police Chowki",
    "type": "police"
   }
  },
  {
   "type": "Feature",
   "geometry": {
    "type": "Point",
    "coordinates": [
     72.8194544,
     21.1983247
    ]
   },
   "properties": {
    "id": "police-5",
    "name": "Chowk Bazar Police Station (Furja)",
    "type": "police"
   }
  }
 ]
}